#aV2019  6 13  0  0  0.00000000     288 DD+AD WGS84 FIT  NGA
## 2057 345600.00000000   300.00000000 58647 0.0000000000000
+   31     1  2  3  5  6  7  8  9 10 11 12 13 14 15 16 17 18
+         19 20 21 22 23 24 25 26 27 28 29 30 31 32  0  0  0
+          0  0  0  0  0  0  0  0  0  0  0  0  0  0  0  0  0
+          0  0  0  0  0  0  0  0  0  0  0  0  0  0  0  0  0
+          0  0  0  0  0  0  0  0  0  0  0  0  0  0  0  0  0
++         2  2  2  2  2  2  2  2  2  2  2  2  2  2  2  2  2
++         2  2  2  2  2  2  2  2  2  2  2  2  2  2  0  0  0
++         0  0  0  0  0  0  0  0  0  0  0  0  0  0  0  0  0
++         0  0  0  0  0  0  0  0  0  0  0  0  0  0  0  0  0
++         0  0  0  0  0  0  0  0  0  0  0  0  0  0  0  0  0
%c cc cc ccc ccc cccc cccc cccc cccc ccccc ccccc ccccc ccccc
%c cc cc ccc ccc cccc cccc cccc cccc ccccc ccccc ccccc ccccc
%f  0.0000000  0.000000000  0.00000000000  0.000000000000000
%f  0.0000000  0.000000000  0.00000000000  0.000000000000000
%i    0    0    0    0      0      0      0      0         0
%i    0    0    0    0      0      0      0      0         0
/*      NGA, ST. LOUIS,MO.                                  
/*   EPHEMERIS COMPUTED FROM 2 DAYS OF DATA                 
/*   EPOCHA v5 SMOOTHER                                     
/*   G1762 IERS2010 SATAF SATAPC                            
*  2019  6 13  5 55  0.00000000
P  1 -13867.390340   6152.191447  21577.995637    -39.853618                    
V  1  -4422.366975 -27495.207656   5268.472606     -0.096492                    
P  2  14041.977938  16857.437311 -14469.630499   -236.136467                    
V  2   1783.086510  19441.757518  23263.298339     -0.089336                    
P  3 -22709.169190  11707.207912   7050.094582    185.710453                    
V  3   5411.536405  -7708.299843  30141.781397     -0.012856                    
P  5  16391.333739   5309.605309 -20386.787026      0.561492                    
V  5 -19025.424825  17155.720557 -10688.488883     -0.001757                    
P  6   6554.584593  25395.476922  -4023.876983    179.339651                    
V  6  -1548.074304   5448.695630  31565.827019     -0.106109                    
P  7  -7956.017011  20059.143458 -14896.242683    -43.452356                    
V  7  -5096.794387 -19082.923464 -23049.564978     -0.076071                    
P  8 -25309.107262  -4327.346277   7238.709359   -147.240968                    
V  8  -7709.415191  -5298.423234 -30044.971471     -0.014387                    
P  9 -10887.952811  11942.242990 -21117.725930    392.632804                    
V  9 -24766.985721 -10142.985363   7036.103157     -0.076580                    
P 10   4605.203291 -19320.723367  17599.053512     17.674612                    
V 10  18515.154525 -12536.102500 -18869.406452     -0.118182                    
P 11 -16924.114879   2356.873856  19753.480269   -585.663903                    
V 11 -13573.545635 -22841.326169  -8931.755741      0.086159                    
P 12  23270.628976  -9074.157780   8561.521015    233.627108                    
V 12  -8014.362547   8109.447984  29793.803996     -0.035213                    
P 13  23199.692549  12985.180319   -366.921127    -59.301750                    
V 13  -1522.360193   2084.846417 -31870.096029      0.017741                    
P 14 -14308.035612 -17882.329970  13933.140523    -76.303572                    
V 14  16201.100316   5754.155428  24417.071096      0.017005                    
P 15  25584.892357   1655.990875   7404.231819   -307.361310                    
V 15   8375.851071   5923.258622 -28829.124602      0.022904                    
P 16 -16015.084326  -5919.056583 -20649.534836    -47.676529                    
V 16  21078.678165 -14565.655983 -11865.115516     -0.030610                    
P 17   6297.133394  17259.772583  19620.285015     70.874906                    
V 17 -22113.920765  -9245.647574  15470.595863      0.063912                    
P 18 -15659.671340  -3894.563077  20626.250728     61.506175                    
V 18  -4528.713249 -26961.766007  -8205.314035      0.031434                    
P 19  13298.083594  17675.137214  14347.431105   -307.220162                    
V 19 -17447.786334  -7048.189620  24406.243443      0.047049                    
P 20  11719.656850 -21783.198102   9360.995402    525.347621                    
V 20  11037.415349  -6152.318545 -27983.162483      0.002465                    
P 21   2541.126263 -24073.814981 -10311.196437   -174.186124                    
V 21   5726.199105  13351.229395 -27494.661681      0.072278                    
P 22 -21960.548975   6131.003472  13789.385898   -716.215223                    
V 22  10711.640346 -13835.102474  23691.331949     -0.057672                    
P 23 -22018.508012   2996.439027 -14497.594277   -182.002943                    
V 23 -16875.227185  -8793.790526  22869.764749      0.016942                    
P 24  15340.159544  -2917.600628  21329.884810    -67.388129                    
V 24   5549.867117  26971.103696     28.423793     -0.005251                    
P 25  19232.322574 -17881.594094  -3138.340811   -765.238661                    
V 25   4615.148843   -198.230318  31792.565288     -0.032733                    
P 26  -7357.243050 -13804.056241 -21470.044642    225.677217                    
V 26  21220.920131 -17128.833878   3919.244034      0.094545                    
P 27 -23274.683823 -12390.362073  -4457.590151   -156.558336                    
V 27   5797.222430    188.884497 -31285.886886     -0.100643                    
P 28  -6535.188908  18823.058923  18216.015983    767.481302                    
V 28 -18831.692401  11097.778767 -18763.437733     -0.003109                    
P 29  15134.745753  -7804.106965 -20423.030780    177.725628                    
V 29  22963.082891  11743.262061  12542.009521     -0.095407                    
P 30  -1520.531147  25778.028850  -5746.239029   -122.913786                    
V 30  -4227.449699  -6985.217763 -30285.910742     -0.072922                    
P 31  -6982.044841 -24719.199307  -5760.755488     31.460807                    
V 31   2216.590390  -7720.139697  30884.074353     -0.026419                    
P 32  -8372.200776 -17242.934439  18496.758605    -45.810866                    
V 32  22286.170916   7062.125658  16608.880529      0.161136                    
EOF
